OBJECT_NAME,OBJECT_ID,EPOCH,MEAN_MOTION,ECCENTRICITY,INCLINATION,RA_OF_ASC_NODE,ARG_OF_PERICENTER,MEAN_ANOMALY,EPHEMERIS_TYPE,CLASSIFICATION_TYPE,NORAD_CAT_ID,ELEMENT_SET_NO,REV_AT_EPOCH,BSTAR,MEAN_MOTION_DOT,MEAN_MOTION_DDOT
STARLINK-34155,2025-101AB,2026-07-19T15:20:25.590912,15.27588357,.00023463,43.0035,332.9103,285.3201,74.7392,0,U,64019,999,6723,.23679461E-3,.6261E-4,0
STARLINK-34141,2025-101AC,2026-07-19T08:58:15.085344,15.27583635,.00016509,43.0020,334.3528,264.9028,95.1635,0,U,64020,999,6719,.25745985E-3,.683E-4,0
STARLINK-34062,2025-101AD,2026-07-19T10:00:57.315456,15.27591613,.00003153,43.0015,333.8245,297.2744,62.8075,0,U,64021,999,6720,.48724851E-3,.13175E-3,0
STARLINK-34051,2025-102A,2026-07-19T06:48:07.542432,14.98332605,.00033656,70.0012,142.6634,267.4537,92.6236,0,U,64022,999,6566,.88816957E-4,.967E-5,0
STARLINK-34087,2025-102B,2026-07-19T05:35:48.094656,14.98339594,.00023803,70.0004,142.8866,265.9846,94.1041,0,U,64023,999,6566,.61134874E-4,.637E-5,0
STARLINK-34184,2025-102C,2026-07-19T06:23:50.882496,14.98344262,.00028964,70.0011,142.5997,266.4946,93.5882,0,U,64024,999,6555,.17008029E-3,.1938E-4,0
STARLINK-34088,2025-102D,2026-07-19T05:48:04.975200,14.98335610,.0002622,70.0007,142.9116,267.8333,92.2525,0,U,64025,999,6566,.27062936E-3,.3138E-4,0
STARLINK-33992,2025-102E,2026-07-19T14:00:30.852288,14.98334372,.0003038,70.0006,142.1038,260.0994,99.9822,0,U,64026,999,6579,.18506226E-3,.2116E-4,0
STARLINK-33967,2025-102F,2026-07-19T05:11:45.149856,14.98333902,.00029964,70.0011,142.8264,269.7715,90.3101,0,U,64027,999,6559,.1108668E-3,.123E-4,0
STARLINK-33953,2025-102G,2026-07-19T14:06:29.134080,14.98334604,.00032605,70.0009,141.7123,260.3374,99.7417,0,U,64028,999,6581,.18479645E-3,.2113E-4,0
STARLINK-33790,2025-102H,2026-07-19T07:06:09.584064,14.98345463,.0003287,70.0008,142.6985,265.5342,94.5442,0,U,64029,999,6571,.25465299E-3,.2948E-4,0
STARLINK-34030,2025-102J,2026-07-19T13:48:29.522016,14.98335086,.00032723,70.0003,142.0741,260.4389,99.6401,0,U,64030,999,6571,.19921547E-3,.2285E-4,0
STARLINK-34024,2025-102K,2026-07-19T05:23:46.771296,14.98333822,.00027132,70.0007,142.8563,266.2682,93.8167,0,U,64031,999,6559,.15472275E-3,.1754E-4,0
STARLINK-34019,2025-102L,2026-07-19T06:17:49.925760,14.98328916,.00027673,70.0014,142.5833,270.1307,89.9535,0,U,64032,999,6567,.20779564E-3,.2387E-4,0
STARLINK-33860,2025-102M,2026-07-19T06:35:52.058976,14.98338502,.0003003,70.0014,142.6285,270.6240,89.4575,0,U,64033,999,6567,.48583499E-4,.487E-5,0
STARLINK-33946,2025-102N,2026-07-19T13:06:40.359744,14.98334370,.00027447,70.0013,141.9736,269.1568,90.9277,0,U,64034,999,6575,.24909861E-3,.2881E-4,0
STARLINK-34046,2025-102P,2026-07-19T13:54:44.200800,14.98323805,.00033601,70.0010,141.9689,264.0688,96.0088,0,U,64035,999,6548,.2626796E-3,.3042E-4,0
STARLINK-34085,2025-102Q,2026-07-19T05:36:02.437056,14.98330286,.00032567,70.0010,142.8806,266.9516,93.1271,0,U,64036,999,6565,.24773477E-3,.2864E-4,0
STARLINK-34008,2025-102R,2026-07-19T13:18:40.351680,14.98334587,.00033965,70.0008,141.9937,261.0919,98.9855,0,U,64037,999,6571,.14087216E-3,.1588E-4,0
STARLINK-34079,2025-102S,2026-07-19T06:11:50.424000,14.98329825,.00035193,70.0011,142.5671,265.7561,94.3196,0,U,64038,999,6576,.26161486E-3,.303E-4,0
STARLINK-34089,2025-102T,2026-07-19T06:00:06.741792,14.98332687,.0003008,70.0016,142.9395,268.5259,91.5556,0,U,64039,999,6565,.44308003E-3,.5198E-4,0
STARLINK-34117,2025-102U,2026-07-19T13:42:43.187616,14.98333515,.00028938,70.0004,142.0531,263.2496,96.8334,0,U,64040,999,6564,.15174428E-3,.1718E-4,0
STARLINK-34111,2025-102V,2026-07-19T07:00:08.816544,14.98332383,.00030922,70.0007,142.6819,267.3245,92.7560,0,U,64041,999,6544,.11047804E-3,.1226E-4,0
STARLINK-34049,2025-102W,2026-07-19T13:54:30.210912,14.98330664,.00034404,70.0006,142.0875,265.3069,94.7697,0,U,64042,999,6570,.27863749E-4,.239E-5,0
STARLINK-34096,2025-102X,2026-07-19T13:30:27.566784,14.98333641,.00028607,70.0008,142.0282,265.8879,94.1953,0,U,64043,999,6559,.13449593E-3,.1512E-4,0
STARLINK-34081,2025-102Y,2026-07-19T05:41:48.494976,14.98334417,.00029073,70.0005,142.8996,262.9046,97.1783,0,U,64044,999,6559,.13756022E-3,.1549E-4,0
STARLINK-34033,2025-102Z,2026-07-19T06:41:53.294784,14.98340075,.0002311,70.0012,142.6412,270.3981,89.6914,0,U,64045,999,6559,.24440019E-3,.2825E-4,0
STARLINK-33952,2025-102AA,2026-07-19T06:29:51.969696,14.98336209,.00027142,70.0013,142.6120,270.0248,90.0600,0,U,64046,999,6566,.25857427E-3,.2994E-4,0
STARLINK-33961,2025-102AB,2026-07-19T05:17:45.782592,14.98335580,.0003177,70.0009,142.8395,260.2819,99.7981,0,U,64047,999,6553,.8546716E-5,.9E-7,0
STARLINK-11741 [DTC],2025-107A,2026-07-19T12:11:20.474304,15.70876735,.00024239,43.0010,24.2156,295.2822,64.7794,0,U,64064,999,6802,.3905239E-3,.50044E-3,0
