STARLINK-34155          
1 64019U 25101AB  26200.63918508  .00006261  00000+0  23679-3 0  9993
2 64019  43.0035 332.9103 0002346 285.3201  74.7392 15.27588357 67235
STARLINK-34141          
1 64020U 25101AC  26200.37378571  .00006830  00000+0  25746-3 0  9995
2 64020  43.0020 334.3528 0001650 264.9028  95.1635 15.27583635 67191
STARLINK-34062          
1 64021U 25101AD  26200.41733004  .00013175  00000+0  48725-3 0  9999
2 64021  43.0015 333.8245 0000315 297.2744  62.8075 15.27591613 67203
STARLINK-34051          
1 64022U 25102A   26200.28342063  .00000967  00000+0  88817-4 0  9999
2 64022  70.0012 142.6634 0003365 267.4537  92.6236 14.98332605 65665
STARLINK-34087          
1 64023U 25102B   26200.23319554  .00000637  00000+0  61135-4 0  9992
2 64023  70.0004 142.8866 0002380 265.9846  94.1041 14.98339594 65663
STARLINK-34184          
1 64024U 25102C   26200.26656114  .00001938  00000+0  17008-3 0  9996
2 64024  70.0011 142.5997 0002896 266.4946  93.5882 14.98344262 65555
STARLINK-34088          
1 64025U 25102D   26200.24172425  .00003138  00000+0  27063-3 0  9999
2 64025  70.0007 142.9116 0002622 267.8333  92.2525 14.98335610 65669
STARLINK-33992          
1 64026U 25102E   26200.58369042  .00002116  00000+0  18506-3 0  9997
2 64026  70.0006 142.1038 0003038 260.0994  99.9822 14.98334372 65796
STARLINK-33967          
1 64027U 25102F   26200.21649479  .00001230  00000+0  11087-3 0  9996
2 64027  70.0011 142.8264 0002996 269.7715  90.3101 14.98333902 65591
STARLINK-33953          
1 64028U 25102G   26200.58783720  .00002113  00000+0  18480-3 0  9990
2 64028  70.0009 141.7123 0003260 260.3374  99.7417 14.98334604 65812
STARLINK-33790          
1 64029U 25102H   26200.29594426  .00002948  00000+0  25465-3 0  9999
2 64029  70.0008 142.6985 0003287 265.5342  94.5442 14.98345463 65714
STARLINK-34030          
1 64030U 25102J   26200.57534169  .00002285  00000+0  19922-3 0  9995
2 64030  70.0003 142.0741 0003272 260.4389  99.6401 14.98335086 65715
STARLINK-34024          
1 64031U 25102K   26200.22484689  .00001754  00000+0  15472-3 0  9995
2 64031  70.0007 142.8563 0002713 266.2682  93.8167 14.98333822 65596
STARLINK-34019          
1 64032U 25102L   26200.26238340  .00002387  00000+0  20780-3 0  9992
2 64032  70.0014 142.5833 0002767 270.1307  89.9535 14.98328916 65671
STARLINK-33860          
1 64033U 25102M   26200.27490809  .00000487  00000+0  48583-4 0  9995
2 64033  70.0014 142.6285 0003003 270.6240  89.4575 14.98338502 65670
STARLINK-33946          
1 64034U 25102N   26200.54630046  .00002881  00000+0  24910-3 0  9992
2 64034  70.0013 141.9736 0002744 269.1568  90.9277 14.98334370 65754
STARLINK-34046          
1 64035U 25102P   26200.57967825  .00003042  00000+0  26268-3 0  9992
2 64035  70.0010 141.9689 0003360 264.0688  96.0088 14.98323805 65489
STARLINK-34085          
1 64036U 25102Q   26200.23336154  .00002864  00000+0  24773-3 0  9991
2 64036  70.0010 142.8806 0003256 266.9516  93.1271 14.98330286 65658
STARLINK-34008          
1 64037U 25102R   26200.55463370  .00001588  00000+0  14087-3 0  9997
2 64037  70.0008 141.9937 0003396 261.0919  98.9855 14.98334587 65715
STARLINK-34079          
1 64038U 25102S   26200.25822250  .00003030  00000+0  26161-3 0  9991
2 64038  70.0011 142.5671 0003519 265.7561  94.3196 14.98329825 65765
STARLINK-34089          
1 64039U 25102T   26200.25007803  .00005198  00000+0  44308-3 0  9991
2 64039  70.0016 142.9395 0003008 268.5259  91.5556 14.98332687 65653
STARLINK-34117          
1 64040U 25102U   26200.57133319  .00001718  00000+0  15174-3 0  9993
2 64040  70.0004 142.0531 0002893 263.2496  96.8334 14.98333515 65643
STARLINK-34111          
1 64041U 25102V   26200.29176871  .00001226  00000+0  11048-3 0  9993
2 64041  70.0007 142.6819 0003092 267.3245  92.7560 14.98332383 65447
STARLINK-34049          
1 64042U 25102W   26200.57951633  .00000239  00000+0  27864-4 0  9999
2 64042  70.0006 142.0875 0003440 265.3069  94.7697 14.98330664 65704
STARLINK-34096          
1 64043U 25102X   26200.56281906  .00001512  00000+0  13450-3 0  9998
2 64043  70.0008 142.0282 0002860 265.8879  94.1953 14.98333641 65592
STARLINK-34081          
1 64044U 25102Y   26200.23736684  .00001549  00000+0  13756-3 0  9990
2 64044  70.0005 142.8996 0002907 262.9046  97.1783 14.98334417 65592
STARLINK-34033          
1 64045U 25102Z   26200.27908906  .00002825  00000+0  24440-3 0  9993
2 64045  70.0012 142.6412 0002311 270.3981  89.6914 14.98340075 65591
STARLINK-33952          
1 64046U 25102AA  26200.27074039  .00002994  00000+0  25857-3 0  9995
2 64046  70.0013 142.6120 0002714 270.0248  90.0600 14.98336209 65669
STARLINK-33961          
1 64047U 25102AB  26200.22066878  .00000009  00000+0  85467-5 0  9993
2 64047  70.0009 142.8395 0003177 260.2819  99.7981 14.98335580 65535
STARLINK-11741 [DTC]    
1 64064U 25107A   26200.50787586  .00050044  00000+0  39052-3 0  9995
2 64064  43.0010  24.2156 0002423 295.2822  64.7794 15.70876735 68023
